KUIPER-00177            
1 67766U 26030C   26053.91668981  .00004258  00000+0  13120-3 0  9995
2 67766  51.8840 290.3046 0000760  81.0983 280.0660 15.35795208  2724
KUIPER-00178            
1 67767U 26030D   26053.91668981  .00006113  00000+0  18930-3 0  9992
2 67767  51.8838 290.3862 0005453   9.5739 311.8845 15.34815938  2096
KUIPER-00180            
1 67768U 26030E   26053.91668981  .00015993  00000+0  50694-3 0  9992
2 67768  51.8808 290.5228 0015031  24.2336 228.0580 15.32766995  1306
KUIPER-00197            
1 67769U 26030F   26053.91668981  .00004278  00000+0  13224-3 0  9995
2 67769  51.8840 290.3195 0001581  73.9184 279.9508 15.35680576  1309
KUIPER-00198            
1 67770U 26030G   26053.91668981  .00004779  00000+0  14808-3 0  9992
2 67770  51.8816 290.3452 0002598  24.9262 315.4266 15.35328293  1304
KUIPER-00199            
1 67771U 26030H   26053.91668981  .00004485  00000+0  14667-3 0  9990
2 67771  51.8811 290.4632 0010232  17.7598 264.0675 15.33725086  2737
KUIPER-00200            
1 67772U 26030J   26053.91668981  .00002842  00000+0  89814-4 0  9993
2 67772  51.8820 290.2730 0002435 153.7178 222.2986 15.36294389  2625
KUIPER-00203            
1 67773U 26030K   26053.91668981  .00004601  00000+0  15145-3 0  9994
2 67773  51.8801 290.4819 0012361  19.4717 252.0686 15.33434726  1389
KUIPER-00205            
1 67774U 26030L   26053.91668981  .00004674  00000+0  14357-3 0  9999
2 67774  51.8817 290.3246 0001679 354.5486 355.8636 15.35659570  2001
KUIPER-00208            
1 67775U 26030M   26053.91668981  .00005461  00000+0  18099-3 0  9992
2 67775  51.8833 290.5246 0014676  18.5711 235.6353 15.32794157  2561
KUIPER-00209            
1 67776U 26030N   26053.91668981  .00012550  00000+0  40107-3 0  9995
2 67776  51.8828 290.5120 0012628  19.8803 239.6210 15.32752401  2212
KUIPER-00213            
1 67777U 26030P   26053.91668981  .00006409  00000+0  21018-3 0  9992
2 67777  51.8809 290.5088 0014501  20.1174 238.9727 15.32819434  2724
